[{"OBJECT_NAME":"ORBCOMM FM19","OBJECT_ID":"1998-046C","EPOCH":"2026-03-09T00:07:17.563296","MEAN_MOTION":14.39270127,"ECCENTRICITY":0.00018158,"INCLINATION":44.9959,"RA_OF_ASC_NODE":359.683,"ARG_OF_PERICENTER":187.4459,"MEAN_ANOMALY":272.3467,"EPHEMERIS_TYPE":0,"CLASSIFICATION_TYPE":"U","NORAD_CAT_ID":25415,"ELEMENT_SET_NO":999,"REV_AT_EPOCH":44234,"BSTAR":0.00058926699,"MEAN_MOTION_DOT":1.703e-5,"MEAN_MOTION_DDOT":0},{"OBJECT_NAME":"FENGYUN 1C DEB","OBJECT_ID":"1999-025BZH","EPOCH":"2026-03-09T20:22:23.869632","MEAN_MOTION":14.38621263,"ECCENTRICITY":0.00258598,"INCLINATION":98.9398,"RA_OF_ASC_NODE":136.3323,"ARG_OF_PERICENTER":103.4212,"MEAN_ANOMALY":325.3227,"EPHEMERIS_TYPE":0,"CLASSIFICATION_TYPE":"U","NORAD_CAT_ID":31566,"ELEMENT_SET_NO":999,"REV_AT_EPOCH":97643,"BSTAR":0.001937186,"MEAN_MOTION_DOT":5.913e-5,"MEAN_MOTION_DDOT":0}]
